{"type":"FeatureCollection","features":[{"type":"Feature","properties":{"id":"wb-01","name":"Demo Watershed 01","state":"West Bengal","district":"Bankura","area":"48.6 km²","villages":6,"waterBodies":12,"interventions":18,"images":24},"geometry":{"type":"Polygon","coordinates":[[[86.91,23.05],[87.07,23.02],[87.18,23.1],[87.15,23.25],[87.0,23.3],[86.88,23.2],[86.91,23.05]]]}},{"type":"Feature","properties":{"id":"wb-02","name":"Demo Watershed 02","state":"West Bengal","district":"Purulia","area":"36.2 km²","villages":4,"waterBodies":8,"interventions":11,"images":16},"geometry":{"type":"Polygon","coordinates":[[[86.13,22.63],[86.3,22.6],[86.4,22.7],[86.34,22.83],[86.16,22.82],[86.1,22.71],[86.13,22.63]]]}}]}
