{"type":"FeatureCollection","features":[{"type":"Feature","properties":{"id":"WB-04","name":"Keshiyakul Farm Pond","type":"Farm pond","area":"0.84 ha","date":"2026-02-18","watershed":"wb-01"},"geometry":{"type":"Polygon","coordinates":[[[87.0,23.185],[87.018,23.185],[87.018,23.198],[87.0,23.198],[87.0,23.185]]]}},{"type":"Feature","properties":{"id":"WB-07","name":"Chandpara Water Body","type":"Community pond","area":"1.16 ha","date":"2026-02-18","watershed":"wb-01"},"geometry":{"type":"Polygon","coordinates":[[[87.097,23.205],[87.116,23.205],[87.116,23.218],[87.097,23.218],[87.097,23.205]]]}}]}
