{"type":"FeatureCollection","features":[{"type":"Feature","properties":{"id":"IMG-024","category":"Check Dam","date":"2026-02-18","intervention":"INT-12","condition":"Functional","description":"Geo-coded field evidence · prototype record","watershed":"wb-01"},"geometry":{"type":"Point","coordinates":[87.056,23.176]}},{"type":"Feature","properties":{"id":"IMG-031","category":"Plantation","date":"2026-02-03","intervention":"INT-18","condition":"Growing","description":"Geo-coded field evidence · prototype record","watershed":"wb-01"},"geometry":{"type":"Point","coordinates":[86.982,23.211]}}]}
