{"type":"FeatureCollection","features":[{"type":"Feature","properties":{"id":"INT-12","type":"Check Dam","status":"Completed","condition":"Functional","date":"2025-11-20","watershed":"wb-01","description":"Prototype intervention record"},"geometry":{"type":"Point","coordinates":[87.052,23.171]}},{"type":"Feature","properties":{"id":"INT-18","type":"Plantation","status":"Under Construction","condition":"Growing","date":"2026-01-15","watershed":"wb-01","description":"Prototype intervention record"},"geometry":{"type":"Point","coordinates":[86.979,23.207]}},{"type":"Feature","properties":{"id":"INT-21","type":"Recharge Structure","status":"Needs Inspection","condition":"Review required","date":"2025-09-08","watershed":"wb-01","description":"Prototype intervention record"},"geometry":{"type":"Point","coordinates":[87.123,23.19]}}]}
